NORAD_CAT_ID,OBJECT_NAME,OBJECT_TYPE,EPOCH,MEAN_MOTION,ECCENTRICITY,INCLINATION,RA_OF_ASC_NODE,ARG_OF_PERICENTER,MEAN_ANOMALY,BSTAR,MEAN_MOTION_DOT,MEAN_MOTION_DDOT,TLE_LINE0,TLE_LINE1,TLE_LINE2,SEMIMAJOR_AXIS,PERIOD,APOGEE,PERIGEE,DECAYED
52473.0,STARLINK-3879,PAYLOAD,2022-12-07 18:19:15,15.08850609,0.0002068,53.2187,351.9413,352.8582,7.2381,4.526e-05,4.32e-06,0.0,0 STARLINK-3879,1 52473U 22049Y   22341.76337615  .00000432  00000-0  45260-4 0  9998,2 52473  53.2187 351.9413 0002068 352.8582   7.2381 15.08850609 33070,6917.848000000001,95.437,541.144,538.2819999999998,0.0
52473.0,STARLINK-3879,PAYLOAD,2022-12-08 07:02:26,15.08767397,0.0002804,53.2186,349.5656,343.2656,16.8243,-0.00041203,-6.827e-05,0.0,0 STARLINK-3879,1 52473U 22049Y   22342.29336197 -.00006827  00000-0 -41203-3 0  9999,2 52473  53.2186 349.5656 0002804 343.2656  16.8243 15.08767397 32999,6918.102,95.442,541.9069999999998,538.0269999999998,0.0
52473.0,STARLINK-3879,PAYLOAD,2022-12-08 18:10:04,15.08813975,0.0002488,53.2176,347.4834,330.2612,29.8238,-0.00011113,-2.055e-05,0.0,0 STARLINK-3879,1 52473U 22049Y   22342.75699353 -.00002055  00000-0 -11113-3 0  9992,2 52473  53.2176 347.4834 0002488 330.2612  29.8238 15.08813975 33060,6917.96,95.439,541.5459999999998,538.104,0.0
52473.0,STARLINK-3879,PAYLOAD,2022-12-09 11:39:09,15.08944825,0.000263,53.217,344.2142,349.9727,10.1212,0.00089069,0.00013957,0.0,0 STARLINK-3879,1 52473U 22049Y   22343.48553020  .00013957  00000-0  89069-3 0  9999,2 52473  53.2170 344.2142 0002630 349.9727  10.1212 15.08944825 33170,6917.56,95.431,541.244,537.606,0.0
52473.0,STARLINK-3879,PAYLOAD,2022-12-09 16:25:28,15.08826313,0.0003032,53.2174,343.3234,7.2749,352.8286,-0.00046108,-7.617e-05,0.0,0 STARLINK-3879,1 52473U 22049Y   22343.68436259 -.00007617  00000-0 -46108-3 0  9990,2 52473  53.2174 343.3234 0003032   7.2749 352.8286 15.08826313 33360,6917.922,95.438,541.885,537.69,0.0
52473.0,STARLINK-3879,PAYLOAD,2022-12-10 06:43:57,15.08828122,0.0002515,53.2185,340.6436,26.1354,333.9764,-0.0001520999999999,-2.708e-05,0.0,0 STARLINK-3879,1 52473U 22049Y   22344.28052298 -.00002708  00000-0 -15210-3 0  9990,2 52473  53.2185 340.6436 0002515  26.1354 333.9764 15.08828122 33454,6917.917,95.438,541.5219999999998,538.0419999999998,0.0
52473.0,STARLINK-3879,PAYLOAD,2022-12-11 04:59:20,15.08824403,0.0002755,53.2187,336.4842,5.3578,354.7444,0.00028453,4.241e-05,0.0,0 STARLINK-3879,1 52473U 22049Y   22345.20787767  .00004241  00000-0  28453-3 0  9994,2 52473  53.2187 336.4842 0002755   5.3578 354.7444 15.08824403 33592,6917.928000000001,95.439,541.6990000000002,537.887,0.0
52473.0,STARLINK-3879,PAYLOAD,2022-12-11 11:20:52,15.08843638,0.0002471,53.2174,335.288,31.9695,328.1447,9.1114e-05,1.162e-05,0.0,0 STARLINK-3879,1 52473U 22049Y   22345.47283138  .00001162  00000-0  91114-4 0  9990,2 52473  53.2174 335.2880 0002471  31.9695 328.1447 15.08843638 33631,6917.869000000002,95.437,541.444,538.025,0.0
52473.0,STARLINK-3879,PAYLOAD,2022-12-12 03:14:44,15.08838732,0.0002162,53.2164,332.3137,32.4171,327.6954,0.00029271,4.373e-05,0.0,0 STARLINK-3879,1 52473U 22049Y   22346.13523825  .00004373  00000-0  29271-3 0  9995,2 52473  53.2164 332.3137 0002162  32.4171 327.6954 15.08838732 33732,6917.884,95.438,541.245,538.254,0.0
52473.0,STARLINK-3879,PAYLOAD,2022-12-12 08:00:54,15.08834582,0.0002464,53.2179,331.4225,28.3317,331.7809,0.00022193,3.245e-05,0.0,0 STARLINK-3879,1 52473U 22049Y   22346.33395917  .00003245  00000-0  22193-3 0  9999,2 52473  53.2179 331.4225 0002464  28.3317 331.7809 15.08834582 33607,6917.897,95.438,541.467,538.057,0.0
52473.0,STARLINK-3879,PAYLOAD,2022-12-13 07:51:41,15.08841437,0.0002509,53.2176,326.9619,27.5439,332.5686,1.3293e-05,-7.7e-07,0.0,0 STARLINK-3879,1 52473U 22049Y   22347.32755912 -.00000077  00000-0  13293-4 0  9997,2 52473  53.2176 326.9619 0002509  27.5439 332.5686 15.08841437 33919,6917.876,95.437,541.477,538.005,0.0
52473.0,STARLINK-3879,PAYLOAD,2022-12-13 15:48:36,15.08851777,0.000232,53.2172,325.4758,29.6301,330.4822,2.0245e-05,3.4e-07,0.0,0 STARLINK-3879,1 52473U 22049Y   22347.65875010  .00000034  00000-0  20245-4 0  9992,2 52473  53.2172 325.4758 0002320  29.6301 330.4822 15.08851777 33967,6917.844,95.437,541.314,538.104,0.0
52473.0,STARLINK-3879,PAYLOAD,2022-12-14 02:56:19,15.08834327,0.0002639,53.2173,323.3922,33.512,326.6039,-2.242800000000001e-05,-6.45e-06,0.0,0 STARLINK-3879,1 52473U 22049Y   22348.12244385 -.00000645  00000-0 -22428-4 0  9995,2 52473  53.2173 323.3922 0002639  33.5120 326.6039 15.08834327 34032,6917.898,95.438,541.5880000000002,537.937,0.0
52473.0,STARLINK-3879,PAYLOAD,2022-12-14 07:42:28,15.08833224,0.0002214,53.2178,322.5001,29.8299,330.2819,-2.3521e-05,-6.63e-06,0.0,0 STARLINK-3879,1 52473U 22049Y   22348.32116503 -.00000663  00000-0 -23521-4 0  9992,2 52473  53.2178 322.5001 0002214  29.8299 330.2819 15.08833224 33907,6917.901,95.438,541.298,538.234,0.0
52473.0,STARLINK-3879,PAYLOAD,2022-12-14 15:39:24,15.08836478,0.0002442,53.2178,321.0147,28.1029,332.0095,-2.0384e-05,-6.13e-06,0.0,0 STARLINK-3879,1 52473U 22049Y   22348.65236332 -.00000613  00000-0 -20384-4 0  9990,2 52473  53.2178 321.0147 0002442  28.1029 332.0095 15.08836478 33953,6917.891,95.438,541.446,538.067,0.0
52473.0,STARLINK-3879,PAYLOAD,2022-12-15 07:33:15,15.08839559,0.0002482,53.2181,318.0416,29.6468,330.4665,9.7249e-05,1.26e-05,0.0,0 STARLINK-3879,1 52473U 22049Y   22349.31475904  .00001260  00000-0  97249-4 0  9995,2 52473  53.2181 318.0416 0002482  29.6468 330.4665 15.08839559 34217,6917.882,95.438,541.464,538.03,0.0
52473.0,STARLINK-3879,PAYLOAD,2022-12-15 15:30:10,15.0884659,0.0002643,53.218,316.5551,27.6002,332.5130000000001,0.00012029,1.627e-05,0.0,0 STARLINK-3879,1 52473U 22049Y   22349.64595440  .00001627  00000-0  12029-3 0  9998,2 52473  53.2180 316.5551 0002643  27.6002 332.5130 15.08846590 34101,6917.86,95.437,541.554,537.8969999999998,0.0
52473.0,STARLINK-3879,PAYLOAD,2022-12-16 07:24:02,15.08834185,0.0002482,53.2182,313.5807,28.5788,331.534,0.00011256,1.503e-05,0.0,0 STARLINK-3879,1 52473U 22049Y   22350.30836319  .00001503  00000-0  11256-3 0  9990,2 52473  53.2182 313.5807 0002482  28.5788 331.5340 15.08834185 34363,6917.898,95.438,541.48,538.0459999999998,0.0
52473.0,STARLINK-3879,PAYLOAD,2022-12-16 21:42:30,15.08845015,0.0002514,53.2179,310.9051,25.0971,335.0143,0.0001053,1.388e-05,0.0,0 STARLINK-3879,1 52473U 22049Y   22350.90451591  .00001388  00000-0  10530-3 0  9996,2 52473  53.2179 310.9051 0002514  25.0971 335.0143 15.08845015 34457,6917.865,95.437,541.469,537.991,0.0
52473.0,STARLINK-3879,PAYLOAD,2022-12-17 07:14:48,15.08848289,0.0002583,53.2185,309.1216,24.9306,335.1811,3.6072e-05,2.86e-06,0.0,0 STARLINK-3879,1 52473U 22049Y   22351.30195489  .00000286  00000-0  36072-4 0  9998,2 52473  53.2185 309.1216 0002583  24.9306 335.1811 15.08848289 34351,6917.855,95.437,541.507,537.933,0.0
52473.0,STARLINK-3879,PAYLOAD,2022-12-18 03:54:51,15.08825873,0.0002456,53.2184,305.2549,26.8974,333.2145,-3.8078e-05,-8.94e-06,0.0,0 STARLINK-3879,1 52473U 22049Y   22352.16309312 -.00000894  00000-0 -38078-4 0  9990,2 52473  53.2184 305.2549 0002456  26.8974 333.2145 15.08825873 34642,6917.924,95.438,541.488,538.09,0.0
52473.0,STARLINK-3879,PAYLOAD,2022-12-18 07:05:37,15.08827234,0.0002464,53.2179,304.6602,23.212,336.8983,-4.6328e-05,-1.025e-05,0.0,0 STARLINK-3879,1 52473U 22049Y   22352.29557359 -.00001025  00000-0 -46328-4 0  9994,2 52473  53.2179 304.6602 0002464  23.2120 336.8983 15.08827234 34509,6917.919,95.438,541.489,538.08,0.0
52473.0,STARLINK-3879,PAYLOAD,2022-12-18 21:24:05,15.08839086,0.0002502,53.2181,301.9838,24.6174,335.4937,4.2173e-05,3.83e-06,0.0,0 STARLINK-3879,1 52473U 22049Y   22352.89172570  .00000383  00000-0  42173-4 0  9996,2 52473  53.2181 301.9838 0002502  24.6174 335.4937 15.08839086 34591,6917.8830000000025,95.438,541.479,538.0169999999998,0.0
52473.0,STARLINK-3879,PAYLOAD,2022-12-19 00:34:51,15.08836193,0.0002416,53.2171,301.3871,23.7085,336.4018,5.0721e-06,-2.08e-06,0.0,0 STARLINK-3879,1 52473U 22049Y   22353.02420944 -.00000208  00000-0  50721-5 0  9999,2 52473  53.2171 301.3871 0002416  23.7085 336.4018 15.08836193 34773,6917.892,95.438,541.428,538.086,0.0
52473.0,STARLINK-3879,PAYLOAD,2022-12-19 19:39:28,15.08846482,0.0002828,53.2174,297.8176,34.8819,325.2358,0.00013367,1.84e-05,0.0,0 STARLINK-3879,1 52473U 22049Y   22353.81908197  .00001840  00000-0  13367-3 0  9992,2 52473  53.2174 297.8176 0002828  34.8819 325.2358 15.08846482 34739,6917.861,95.437,541.682,537.769,0.0
52473.0,STARLINK-3879,PAYLOAD,2022-12-19 22:50:14,15.08848108,0.0002496,53.2177,297.2267,27.0168,333.0954,0.00033292,5.015e-05,0.0,0 STARLINK-3879,1 52473U 22049Y   22353.95155420  .00005015  00000-0  33292-3 0  9997,2 52473  53.2177 297.2267 0002496  27.0168 333.0954 15.08848108 34915,6917.856,95.437,541.447,537.994,0.0
52473.0,STARLINK-3879,PAYLOAD,2022-12-20 13:08:42,15.08847334,0.0002474,53.2176,294.5497,26.7302,333.3817,0.00028543,4.258e-05,0.0,0 STARLINK-3879,1 52473U 22049Y   22354.54771440  .00004258  00000-0  28543-3 0  9990,2 52473  53.2176 294.5497 0002474  26.7302 333.3817 15.08847334 34844,6917.858,95.437,541.434,538.011,0.0
52473.0,STARLINK-3879,PAYLOAD,2022-12-21 01:51:48,15.08837572,0.0002357,53.2172,292.1698,24.0377,336.0724,6.7488e-05,7.86e-06,0.0,0 STARLINK-3879,1 52473U 22049Y   22355.07764495  .00000786  00000-0  67488-4 0  9995,2 52473  53.2172 292.1698 0002357  24.0377 336.0724 15.08837572 35087,6917.888000000001,95.438,541.383,538.122,0.0
52473.0,STARLINK-3879,PAYLOAD,2022-12-21 12:59:30,15.088243099999998,0.0002576,53.2167,290.0885,30.6297,329.4845,-0.00027075,-4.593e-05,0.0,0 STARLINK-3879,1 52473U 22049Y   22355.54133083 -.00004593  00000-0 -27075-3 0  9999,2 52473  53.2167 290.0885 0002576  30.6297 329.4845 15.08824310 35157,6917.928000000001,95.439,541.575,538.011,0.0
